{
  "type": "FeatureCollection",
  "features": [
    {
      "type": "Feature",
      "properties": {
        "norad_id": 66564,
        "name": "STARLINK-35358",
        "group": "last-30-days",
        "lat": 34.21849262765139,
        "lon": -153.7617007334547,
        "alt_km": 372.69483855683484,
        "timestamp": "2025-12-06T05:40:08.012000+00:00",
        "meta_object_name": "STARLINK-35358",
        "meta_object_id": "2025-268H",
        "meta_epoch": "2025-12-05T06:00:02.000160",
        "meta_mean_motion": 15.67860478,
        "meta_eccentricity": 0.00016382,
        "meta_inclination": 42.9995,
        "meta_ra_of_asc_node": 165.2678,
        "meta_arg_of_pericenter": 262.7035,
        "meta_mean_anomaly": 347.3162,
        "meta_ephemeris_type": 0,
        "meta_classification_type": "U",
        "meta_norad_cat_id": 66564,
        "meta_element_set_no": 999,
        "meta_rev_at_epoch": 341,
        "meta_bstar": -0.019903833,
        "meta_mean_motion_dot": -0.01989573,
        "meta_mean_motion_ddot": 0,
        "tle_line1": "1 66564U 25268H   25339.25002315 -.01989573  00000+0 -19904-1 0  9997",
        "tle_line2": "2 66564  42.9995 165.2678 0001638 262.7035 347.3162 15.67860478  3411"
      },
      "geometry": {
        "type": "Point",
        "coordinates": [
          -153.7617007334547,
          34.21849262765139
        ]
      }
    },
    {
      "type": "Feature",
      "properties": {
        "norad_id": 66565,
        "name": "STARLINK-35893",
        "group": "last-30-days",
        "lat": 35.09302720030211,
        "lon": -151.69734994412346,
        "alt_km": 372.62000966970845,
        "timestamp": "2025-12-06T05:40:08.012012+00:00",
        "meta_object_name": "STARLINK-35893",
        "meta_object_id": "2025-268J",
        "meta_epoch": "2025-12-05T06:00:02.000160",
        "meta_mean_motion": 15.67862936,
        "meta_eccentricity": 0.00016765,
        "meta_inclination": 42.9995,
        "meta_ra_of_asc_node": 165.2628,
        "meta_arg_of_pericenter": 262.8792,
        "meta_mean_anomaly": 349.056,
        "meta_ephemeris_type": 0,
        "meta_classification_type": "U",
        "meta_norad_cat_id": 66565,
        "meta_element_set_no": 999,
        "meta_rev_at_epoch": 346,
        "meta_bstar": -0.019937435,
        "meta_mean_motion_dot": -0.01992737,
        "meta_mean_motion_ddot": 0,
        "tle_line1": "1 66565U 25268J   25339.25002315 -.01992737  00000+0 -19937-1 0  9990",
        "tle_line2": "2 66565  42.9995 165.2628 0001676 262.8792 349.0560 15.67862936  3467"
      },
      "geometry": {
        "type": "Point",
        "coordinates": [
          -151.69734994412346,
          35.09302720030211
        ]
      }
    },
    {
      "type": "Feature",
      "properties": {
        "norad_id": 66566,
        "name": "STARLINK-35871",
        "group": "last-30-days",
        "lat": 35.93067031039624,
        "lon": -149.59162647231065,
        "alt_km": 372.52001673512314,
        "timestamp": "2025-12-06T05:40:08.012022+00:00",
        "meta_object_name": "STARLINK-35871",
        "meta_object_id": "2025-268K",
        "meta_epoch": "2025-12-05T06:00:02.000160",
        "meta_mean_motion": 15.67866218,
        "meta_eccentricity": 0.0001661,
        "meta_inclination": 42.9995,
        "meta_ra_of_asc_node": 165.2578,
        "meta_arg_of_pericenter": 263.1285,
        "meta_mean_anomaly": 350.7224,
        "meta_ephemeris_type": 0,
        "meta_classification_type": "U",
        "meta_norad_cat_id": 66566,
        "meta_element_set_no": 999,
        "meta_rev_at_epoch": 346,
        "meta_bstar": -0.019983551,
        "meta_mean_motion_dot": -0.01997018,
        "meta_mean_motion_ddot": 0,
        "tle_line1": "1 66566U 25268K   25339.25002315 -.01997018  00000+0 -19984-1 0  9990",
        "tle_line2": "2 66566  42.9995 165.2578 0001661 263.1285 350.7224 15.67866218  3460"
      },
      "geometry": {
        "type": "Point",
        "coordinates": [
          -149.59162647231065,
          35.93067031039624
        ]
      }
    },
    {
      "type": "Feature",
      "properties": {
        "norad_id": 66567,
        "name": "STARLINK-35825",
        "group": "last-30-days",
        "lat": 36.73961837572503,
        "lon": -147.4162062413385,
        "alt_km": 372.4442747408157,
        "timestamp": "2025-12-06T05:40:08.012034+00:00",
        "meta_object_name": "STARLINK-35825",
        "meta_object_id": "2025-268L",
        "meta_epoch": "2025-12-05T06:00:02.000160",
        "meta_mean_motion": 15.67862832,
        "meta_eccentricity": 0.00017338,
        "meta_inclination": 42.9995,
        "meta_ra_of_asc_node": 165.2532,
        "meta_arg_of_pericenter": 262.711,
        "meta_mean_anomaly": 353.0558,
        "meta_ephemeris_type": 0,
        "meta_classification_type": "U",
        "meta_norad_cat_id": 66567,
        "meta_element_set_no": 999,
        "meta_rev_at_epoch": 346,
        "meta_bstar": -0.019908066,
        "meta_mean_motion_dot": -0.01990193,
        "meta_mean_motion_ddot": 0,
        "tle_line1": "1 66567U 25268L   25339.25002315 -.01990193  00000+0 -19908-1 0  9994",
        "tle_line2": "2 66567  42.9995 165.2532 0001733 262.7110 353.0558 15.67862832  3467"
      },
      "geometry": {
        "type": "Point",
        "coordinates": [
          -147.4162062413385,
          36.73961837572503
        ]
      }
    },
    {
      "type": "Feature",
      "properties": {
        "norad_id": 66568,
        "name": "STARLINK-35803",
        "group": "last-30-days",
        "lat": 37.50011706465062,
        "lon": -145.21978242164698,
        "alt_km": 372.29736560569654,
        "timestamp": "2025-12-06T05:40:08.012044+00:00",
        "meta_object_name": "STARLINK-35803",
        "meta_object_id": "2025-268M",
        "meta_epoch": "2025-12-05T06:00:02.000160",
        "meta_mean_motion": 15.67864414,
        "meta_eccentricity": 0.00016408,
        "meta_inclination": 42.9995,
        "meta_ra_of_asc_node": 165.2479,
        "meta_arg_of_pericenter": 262.9153,
        "meta_mean_anomaly": 354.7692,
        "meta_ephemeris_type": 0,
        "meta_classification_type": "U",
        "meta_norad_cat_id": 66568,
        "meta_element_set_no": 999,
        "meta_rev_at_epoch": 346,
        "meta_bstar": -0.019939413,
        "meta_mean_motion_dot": -0.0199299,
        "meta_mean_motion_ddot": 0,
        "tle_line1": "1 66568U 25268M   25339.25002315 -.01992990  00000+0 -19939-1 0  9996",
        "tle_line2": "2 66568  42.9995 165.2479 0001640 262.9153 354.7692 15.67864414  3469"
      },
      "geometry": {
        "type": "Point",
        "coordinates": [
          -145.21978242164698,
          37.50011706465062
        ]
      }
    },
    {
      "type": "Feature",
      "properties": {
        "norad_id": 66569,
        "name": "STARLINK-35835",
        "group": "last-30-days",
        "lat": 38.22023409165523,
        "lon": -142.97397812687183,
        "alt_km": 372.2309901749941,
        "timestamp": "2025-12-06T05:40:08.012055+00:00",
        "meta_object_name": "STARLINK-35835",
        "meta_object_id": "2025-268N",
        "meta_epoch": "2025-12-05T06:00:02.000160",
        "meta_mean_motion": 15.67865255,
        "meta_eccentricity": 0.00016779,
        "meta_inclination": 42.9994,
        "meta_ra_of_asc_node": 165.2434,
        "meta_arg_of_pericenter": 263.398,
        "meta_mean_anomaly": 356.2029,
        "meta_ephemeris_type": 0,
        "meta_classification_type": "U",
        "meta_norad_cat_id": 66569,
        "meta_element_set_no": 999,
        "meta_rev_at_epoch": 346,
        "meta_bstar": -0.019950968,
        "meta_mean_motion_dot": -0.01994097,
        "meta_mean_motion_ddot": 0,
        "tle_line1": "1 66569U 25268N   25339.25002315 -.01994097  00000+0 -19951-1 0  9991",
        "tle_line2": "2 66569  42.9994 165.2434 0001677 263.3980 356.2029 15.67865255  3468"
      },
      "geometry": {
        "type": "Point",
        "coordinates": [
          -142.97397812687183,
          38.22023409165523
        ]
      }
    },
    {
      "type": "Feature",
      "properties": {
        "norad_id": 66570,
        "name": "STARLINK-35834",
        "group": "last-30-days",
        "lat": 38.902451783346976,
        "lon": -140.66504043233948,
        "alt_km": 372.09549149187114,
        "timestamp": "2025-12-06T05:40:08.012065+00:00",
        "meta_object_name": "STARLINK-35834",
        "meta_object_id": "2025-268P",
        "meta_epoch": "2025-12-05T06:00:02.000160",
        "meta_mean_motion": 15.67853714,
        "meta_eccentricity": 0.00016212,
        "meta_inclination": 42.9994,
        "meta_ra_of_asc_node": 165.2379,
        "meta_arg_of_pericenter": 261.6286,
        "meta_mean_anomaly": 359.8983,
        "meta_ephemeris_type": 0,
        "meta_classification_type": "U",
        "meta_norad_cat_id": 66570,
        "meta_element_set_no": 999,
        "meta_rev_at_epoch": 346,
        "meta_bstar": -0.019822931,
        "meta_mean_motion_dot": -0.01981949,
        "meta_mean_motion_ddot": 0,
        "tle_line1": "1 66570U 25268P   25339.25002315 -.01981949  00000+0 -19823-1 0  9993",
        "tle_line2": "2 66570  42.9994 165.2379 0001621 261.6286 359.8983 15.67853714  3462"
      },
      "geometry": {
        "type": "Point",
        "coordinates": [
          -140.66504043233948,
          38.902451783346976
        ]
      }
    }
  ]
}